1 47705U 21015G   23004.14620061  .17497228  24343-5  15241-2 0  9997
2 47705  97.3706  92.6267 0010209 310.2291  49.8114 16.39235580103394
1 47706U 21015H   23001.63249112  .09331765  24261-5  23735-2 0  9993
2 47706  97.3652  90.0110 0009313 305.0844  54.9576 16.28799769103003
1 47707U 21015J   22360.35200059  .18351332  25167-5  81566-3 0  9992
2 47707  97.3552  83.5521 0009807 275.2343  84.7839 16.42515928102030
1 47708U 21015K   22354.63111145  .10463150  24216-5  27507-2 0  9996
2 47708  97.3662  77.9415 0009745 307.9616  52.0796 16.28419672101165
1 47709U 21015L   22351.71629796  .11274378  24508-5  19405-2 0  9994
2 47709  97.3652  75.1569 0010786 303.3164  56.7098 16.32868046100646
1 47710U 21015M   22337.09384299  .03582497  29195-1  33575-2 0  9999
2 47710  97.3791  60.2365 0010054 290.1803  69.8402 16.15966008 98460
1 47711U 21015N   22327.84515907  .09337936  24369-5  22090-2 0  9998
2 47711  97.3644  51.0661 0009611 298.7836  61.2492 16.29583938 97053
1 47712U 21015P   22343.17387209  .02793848  12779-1  38530-2 0  9990
2 47712  97.3752  66.3085 0007704 305.1908  54.8653 16.09323628 99399
1 47714U 21015Q   22329.15685749  .17610715  25168-5  97653-3 0  9993
2 47714  97.3638  52.3980 0010421 276.1592  83.8521 16.41448405 97176
1 47715U 21015R   22347.69386243  .19751485  25308-5  58903-3 0  9993
2 47715  97.3727  71.2330 0014122 309.7419  50.2637 16.43867895100102
1 48626U 21006ES  23096.80554974  .17625859  24718-5  37477-3 0  9998
2 48626  97.1227 144.1269 0009783 244.8871 115.1417 16.46212021122486
1 48627U 21006ET  23091.67013592  .18513959  24015-5  11287-2 0  9993
2 48627  97.1322 139.1091 0012715 256.4031 103.5854 16.40704536121695
1 48628U 21006EU  23103.57727894  .14680396  23557-5  20922-2 0  9996
2 48628  97.1265 150.5803 0013569 258.4134 101.5640 16.34602806123518
1 48629U 21006EV  23107.04376461  .21894054  24313-5  79556-3 0  9998
2 48629  97.1259 153.9185 0012244 247.8740 112.1262 16.43132758124047
1 48630U 21006EW  23109.70852025  .07815112  22903-5  33783-2 0  9996
2 48630  97.1279 156.3744 0013510 252.5676 107.4138 16.22432095124444
1 48631U 21006EX  23113.39518077  .04913110  22702-5  28792-2 0  9998
2 48631  97.1296 159.8872 0013338 251.8598 108.1238 16.18513684125008
1 48632U 21006EY  23115.53815084  .04479463  22622-5  31046-2 0  9990
2 48632  97.1360 161.8436 0012362 256.3352 103.6559 16.16260985125326
1 48633U 21006EZ  23120.47362720  .08323446  23017-5  31392-2 0  9990
2 48633  97.1318 166.6644 0013553 250.6736 109.3090 16.24102196126085
1 48634U 21006FA  23127.39117530  .15977679  23622-5  17212-2 0  9994
2 48634  97.1270 173.3866 0015517 256.1834 103.7738 16.37092163127147
1 48635U 21006FB  23131.11649056  .05197289  22555-5  36089-2 0  9990
2 48635  97.1277 176.8212 0014555 242.3425 117.6386 16.16157971127703
1 48636U 21006FC  23143.15969595  .10949963  23330-5  23380-2 0  9993
2 48636  97.1273 188.5621 0013942 251.7818 108.1960 16.30511000129554
1 48637U 21006FD  23152.19591780  .08555475  23089-5  25650-2 0  9996
2 48637  97.1205 197.3729 0013805 248.8568 111.1250 16.26787168130940
1 48882U 21059D   23257.15533907  .07304353  25627-5  23086-2 0  9992
2 48882  97.5553  44.9014 0013755 286.4110  73.5669 16.26176000123596
1 48883U 21059E   23333.91174818  .00128836  00000-0  21560-2 0  9995
2 48883  97.6074 116.9537 0003096   9.1703 350.9604 15.51414039134880
1 48884U 21059F   23333.93038681  .00115542  00000-0  20940-2 0  9996
2 48884  97.6083 116.5076 0003035  25.2907 334.8491 15.49199745134856
1 48886U 21059H   23333.94858254  .00120790  00000-0  21425-2 0  9995
2 48886  97.6086 116.6278 0002887  16.1063 344.0279 15.49794918134863
1 48887U 21059J   23256.06173322  .05941361  25563-5  23687-2 0  9997
2 48887  97.5665  43.7101 0014803 289.2816  70.6873 16.23370147123420
1 48888U 21059K   23333.68510584  .00127371  00000-0  21036-2 0  9999
2 48888  97.6094 117.0271 0002909   7.9225 352.2072 15.51790450134867
1 48889U 21059L   23252.36340224  .04497375  25304-5  24025-2 0  9995
2 48889  97.5584  40.2257 0014660 281.3392  78.6249 16.19680953122865
1 48890U 21059M   23333.95717353  .00133485  00000-0  21311-2 0  9994
2 48890  97.6064 117.3610 0003287  14.5472 345.5874 15.52716190134916
1 48891U 21059N   23258.66769411  .11161365  26385-5  11731-2 0  9995
2 48891  97.5691  46.8178 0014847 287.6730  72.2946 16.37345709123832
1 48893U 21059Q   23333.69731034  .00112366  00000-0  20301-2 0  9993
2 48893  97.6105 116.7403 0003293  27.7072 332.4353 15.49300532134830
1 48894U 21059R   23333.63515656  .00144310  00000-0  21724-2 0  9992
2 48894  97.6091 117.9339 0002837   3.2496 356.8775 15.54308686134908
1 48895U 21059S   23333.93279039  .00119463  00000-0  21324-2 0  9995
2 48895  97.6099 117.0022 0003417  26.3333 333.8091 15.49618209134879
1 48896U 21059T   23333.94679026  .00137893  00000-0  22241-2 0  9993
2 48896  97.6089 117.2450 0003135   1.3016 358.8244 15.52414595134901
1 48897U 21059U   23333.88995974  .00141406  00000-0  22092-2 0  9999
2 48897  97.6086 117.8628 0003455  18.0630 342.0745 15.53289708134924
1 48899U 21059W   23333.75841846  .00135625  00000-0  21174-2 0  9991
2 48899  97.6089 118.0811 0003551  13.8576 346.2773 15.53329911134923
1 48904U 21059AB  23333.64598738  .00161279  00000-0  21630-2 0  9996
2 48904  97.6093 119.0876 0003833 359.3963   0.7286 15.57394193134972
1 48932U 21059BF  23070.68202897  .16209483  26181-5  18526-2 0  9997
2 48932  97.5338 215.2825 0015709 286.7211  73.2362 16.36538641 95175
1 48933U 21059BG  23059.87631962  .13466203  25787-5  27813-2 0  9997
2 48933  97.5310 204.5794 0015079 295.9375  64.0365 16.30797052 93542
1 48934U 21059BH  23077.78451256  .18799698  26154-5  78703-3 0  9990
2 48934  97.5277 222.2973 0011566 284.2746  75.7269 16.42549820 96244
1 48935U 21059BJ  23053.66893557  .10149329  25749-5  21575-2 0  9991
2 48935  97.5235 198.1895 0015575 303.4614  56.5191 16.30468953 92594
1 48936U 21059BK  23088.39883026  .11855710  25755-5  22239-2 0  9994
2 48936  97.5277 232.9441 0013282 282.9424  77.0387 16.31883316 97852
1 48937U 21059BL  23069.97773394  .04315638  47361-1  44893-2 0  9999
2 48937  97.5330 214.1829 0015156 291.5989  68.3681 16.14924748 95044
1 48939U 21059BN  23058.88032242  .20517574  26259-5  10683-2 0  9997
2 48939  97.5236 203.4447 0017981 265.8992  94.0252 16.40598589 93388
1 48940U 21059BP  23062.95372260  .19710181  26164-5  18623-2 0  9993
2 48940  97.5207 207.7154 0010083 268.3747  91.6396 16.38532335 94019
1 48945U 21059BU  23072.32812107  .10685461  25494-5  27467-2 0  9993
2 48945  97.5247 216.9657 0012704 292.2283  67.7662 16.28556811 95421
1 48946U 21059BV  23084.25669750  .11899296  25662-5  27484-2 0  9993
2 48946  97.5310 228.7474 0013888 288.1728  71.8053 16.29669845 97226
1 48947U 21059BW  23060.06871590  .05683622  25040-5  41247-2 0  9994
2 48947  97.5337 204.6315 0018877 308.1368  51.8215 16.15352319 93560
1 48949U 21059BY  23085.06483667  .19475489  26431-5  96064-3 0  9995
2 48949  97.5404 229.8229 0015881 266.5026  93.4457 16.41167007 97358
1 52009U 22026B   23333.79419274  .00125977  00000-0  20780-2 0  9995
2 52009  97.4962 341.4715 0010796 186.4986 173.6128 15.51774844 95115
1 52010U 22026C   23333.78783034  .00145040  00000-0  22153-2 0  9993
2 52010  97.4987 342.1335 0010158 183.7940 176.3238 15.53856930 95157
1 52011U 22026D   23333.79031725  .00138809  00000-0  21157-2 0  9996
2 52011  97.4962 342.0143 0010390 179.7111 180.4150 15.53934319 95146
1 52012U 22026E   23333.74576849  .00145108  00000-0  21447-2 0  9995
2 52012  97.4959 342.4100 0009617 183.3540 176.7651 15.54767914 95170
1 52013U 22026F   23333.98490802  .00149781  00000-0  22575-2 0  9990
2 52013  97.4953 342.3469 0010857 176.2446 183.8891 15.54199152 95185
1 52014U 22026G   23333.75095009  .00154713  00000-0  22210-2 0  9993
2 52014  97.4941 342.3474 0009463 177.0707 183.0605 15.55533668 95167
1 52015U 22026H   23333.74780592  .00131888  00000-0  21266-2 0  9999
2 52015  97.4963 341.6781 0010351 183.8534 176.2640 15.52395418 95110
1 52016U 22026J   23333.80369329  .00121755  00000-0  20489-2 0  9996
2 52016  97.4988 341.8047 0010944 184.7634 175.3515 15.51226296 95122
1 52018U 22026L   23324.97708227  .05859790  25241-5  24509-2 0  9998
2 52018  97.4584 337.9925 0006816 191.9926 168.1203 16.23037414 94129
1 52019U 22026M   23309.82882845  .17809760  26103-5  84557-3 0  9998
2 52019  97.4576 322.7947 0004828 266.9654  93.1094 16.42880709 91776
1 52020U 22026N   23333.78142576  .00106375  00000-0  19225-2 0  9998
2 52020  97.4980 341.2824 0011356 188.0099 172.0972 15.49252993 95048
1 52021U 22026P   23334.01101758  .00154017  00000-0  22214-2 0  9991
2 52021  97.4946 342.7502 0010579 177.7171 182.4133 15.55395766 95083
1 52022U 22026Q   23334.01183660  .00119704  00000-0  20754-2 0  9995
2 52022  97.4983 341.8265 0011118 185.4037 174.7096 15.50388158 95015
1 52023U 22026R   23333.55715077  .00124407  00000-0  20573-2 0  9992
2 52023  97.4979 341.6854 0010491 182.5234 177.5967 15.51713231 94969
1 52024U 22026S   23333.76885189  .00143582  00000-0  21693-2 0  9997
2 52024  97.4943 342.2475 0011123 177.1237 183.0082 15.54151153 95023
1 52025U 22026T   23333.52496749  .00303657  00000-0  27025-2 0  9998
2 52025  97.4886 343.8933 0008950 162.1244 198.0333 15.67509455 95113
1 52026U 22026U   23320.59216895  .15212064  26228-5  62730-3 0  9999
2 52026  97.4503 333.5691 0013225 223.2930 136.7332 16.42389102 93237
1 52027U 22026V   23333.58026763  .00125171  00000-0  20796-2 0  9992
2 52027  97.4964 341.3488 0010606 184.4212 175.6948 15.51578100 94863
1 52028U 22026W   23333.82992542  .00788298  00000-0  31883-2 0  9991
2 52028  97.4928 346.0383 0007223 152.4167 207.7487 15.84362325 95261
1 52029U 22026X   23333.77751668  .00124809  00000-0  20586-2 0  9998
2 52029  97.4952 341.5246 0010765 182.9106 177.2085 15.51781348 93619
1 52164U 22033H   23274.29992731  .14117271  24693-5  11942-2 0  9990
2 52164  97.3010   3.6644 0011692 279.4965  80.5013 16.39418230 84167
